[{"OBJECT_NAME":"STARLINK-32270","OBJECT_ID":"2024-138K","EPOCH":"2026-03-09T22:26:56.664384","MEAN_MOTION":15.3017941,"ECCENTRICITY":0.00017641,"INCLINATION":53.1612,"RA_OF_ASC_NODE":308.5792,"ARG_OF_PERICENTER":44.3255,"MEAN_ANOMALY":315.7887,"EPHEMERIS_TYPE":0,"CLASSIFICATION_TYPE":"U","NORAD_CAT_ID":60364,"ELEMENT_SET_NO":999,"REV_AT_EPOCH":9056,"BSTAR":-2.3791144e-5,"MEAN_MOTION_DOT":-1.064e-5,"MEAN_MOTION_DDOT":0},{"OBJECT_NAME":"CZ-6A DEB","OBJECT_ID":"2022-151QV","EPOCH":"2026-03-09T04:36:08.895168","MEAN_MOTION":15.24642942,"ECCENTRICITY":0.00273347,"INCLINATION":98.639,"RA_OF_ASC_NODE":154.2763,"ARG_OF_PERICENTER":174.5721,"MEAN_ANOMALY":185.5815,"EPHEMERIS_TYPE":0,"CLASSIFICATION_TYPE":"U","NORAD_CAT_ID":54908,"ELEMENT_SET_NO":999,"REV_AT_EPOCH":17373,"BSTAR":0.0098290719,"MEAN_MOTION_DOT":0.00253193,"MEAN_MOTION_DDOT":0}]
